{
  "type": "FeatureCollection",
  "features": [
    {
      "type": "Feature",
      "properties": {
        "norad_id": 54259,
        "name": "EUTELSAT 10B",
        "group": "eutelsat",
        "lat": 0.054448890470232644,
        "lon": 163.51217841538934,
        "alt_km": 35781.4561634448,
        "timestamp": "2025-12-10T04:57:29.277741+00:00",
        "meta_object_name": "EUTELSAT 10B",
        "meta_object_id": "2022-157A",
        "meta_epoch": "2025-12-09T13:37:14.907360",
        "meta_mean_motion": 1.0026671,
        "meta_eccentricity": 0.0001473,
        "meta_inclination": 0.0618,
        "meta_ra_of_asc_node": 98.0334,
        "meta_arg_of_pericenter": 79.9277,
        "meta_mean_anomaly": 114.8799,
        "meta_ephemeris_type": 0,
        "meta_classification_type": "U",
        "meta_norad_cat_id": 54259,
        "meta_element_set_no": 999,
        "meta_rev_at_epoch": 1112,
        "meta_bstar": 0,
        "meta_mean_motion_dot": 7e-07,
        "meta_mean_motion_ddot": 0,
        "tle_line1": "1 54259U 22157A   25343.56753365  .00000070  00000+0  00000+0 0  9994",
        "tle_line2": "2 54259   0.0618  98.0334 0001473  79.9277 114.8799  1.00266710 11122"
      },
      "geometry": {
        "type": "Point",
        "coordinates": [
          163.51217841538934,
          0.054448890470232644
        ]
      }
    },
    {
      "type": "Feature",
      "properties": {
        "norad_id": 59346,
        "name": "EUTELSAT 36D",
        "group": "eutelsat",
        "lat": -0.014115427317542733,
        "lon": -170.600441616496,
        "alt_km": 35788.46406530371,
        "timestamp": "2025-12-10T04:57:29.277753+00:00",
        "meta_object_name": "EUTELSAT 36D",
        "meta_object_id": "2024-059A",
        "meta_epoch": "2025-12-09T17:56:38.724288",
        "meta_mean_motion": 1.00268759,
        "meta_eccentricity": 4.91e-05,
        "meta_inclination": 0.0176,
        "meta_ra_of_asc_node": 349.9675,
        "meta_arg_of_pericenter": 340.047,
        "meta_mean_anomaly": 53.7336,
        "meta_ephemeris_type": 0,
        "meta_classification_type": "U",
        "meta_norad_cat_id": 59346,
        "meta_element_set_no": 999,
        "meta_rev_at_epoch": 624,
        "meta_bstar": 0,
        "meta_mean_motion_dot": 0,
        "meta_mean_motion_ddot": 0,
        "tle_line1": "1 59346U 24059A   25343.74767042  .00000000  00000+0  00000+0 0  9999",
        "tle_line2": "2 59346   0.0176 349.9675 0000491 340.0470  53.7336  1.00268759  6245"
      },
      "geometry": {
        "type": "Point",
        "coordinates": [
          -170.600441616496,
          -0.014115427317542733
        ]
      }
    }
  ]
}